{
  "type": "FeatureCollection",
  "features": [
    {
      "type": "Feature",
      "properties": {
        "norad_id": 38356,
        "name": "INTELSAT 19 (IS-19)",
        "group": "intelsat",
        "lat": NaN,
        "lon": NaN,
        "alt_km": NaN,
        "timestamp": "2025-12-01T03:08:33.646183+00:00",
        "meta": {
          "OBJECT_NAME": "INTELSAT 19 (IS-19)",
          "OBJECT_ID": "2012-030A",
          "EPOCH": "2025-11-30T18:03:27.340128",
          "MEAN_MOTION": 1.00271665,
          "ECCENTRICITY": 0.0003327,
          "INCLINATION": 0.0136,
          "RA_OF_ASC_NODE": 309.0537,
          "ARG_OF_PERICENTER": 306.3359,
          "MEAN_ANOMALY": 251.3747,
          "EPHEMERIS_TYPE": 0,
          "CLASSIFICATION_TYPE": "U",
          "NORAD_CAT_ID": 38356,
          "ELEMENT_SET_NO": 999,
          "REV_AT_EPOCH": 4846,
          "BSTAR": 0,
          "MEAN_MOTION_DOT": -3.4e-07,
          "MEAN_MOTION_DDOT": 0
        }
      },
      "geometry": {
        "type": "Point",
        "coordinates": [
          NaN,
          NaN
        ]
      }
    },
    {
      "type": "Feature",
      "properties": {
        "norad_id": 38740,
        "name": "INTELSAT 20 (IS-20)",
        "group": "intelsat",
        "lat": NaN,
        "lon": NaN,
        "alt_km": NaN,
        "timestamp": "2025-12-01T03:08:33.646582+00:00",
        "meta": {
          "OBJECT_NAME": "INTELSAT 20 (IS-20)",
          "OBJECT_ID": "2012-043A",
          "EPOCH": "2025-11-30T19:18:24.112800",
          "MEAN_MOTION": 1.00270589,
          "ECCENTRICITY": 0.0002885,
          "INCLINATION": 0.0014,
          "RA_OF_ASC_NODE": 0.1559,
          "ARG_OF_PERICENTER": 185.8784,
          "MEAN_ANOMALY": 242.0096,
          "EPHEMERIS_TYPE": 0,
          "CLASSIFICATION_TYPE": "U",
          "NORAD_CAT_ID": 38740,
          "ELEMENT_SET_NO": 999,
          "REV_AT_EPOCH": 4875,
          "BSTAR": 0,
          "MEAN_MOTION_DOT": -3e-08,
          "MEAN_MOTION_DDOT": 0
        }
      },
      "geometry": {
        "type": "Point",
        "coordinates": [
          NaN,
          NaN
        ]
      }
    },
    {
      "type": "Feature",
      "properties": {
        "norad_id": 38749,
        "name": "INTELSAT 21 (IS-21)",
        "group": "intelsat",
        "lat": NaN,
        "lon": NaN,
        "alt_km": NaN,
        "timestamp": "2025-12-01T03:08:33.646979+00:00",
        "meta": {
          "OBJECT_NAME": "INTELSAT 21 (IS-21)",
          "OBJECT_ID": "2012-045A",
          "EPOCH": "2025-11-30T18:42:12.580128",
          "MEAN_MOTION": 1.00270121,
          "ECCENTRICITY": 0.0001936,
          "INCLINATION": 0.0554,
          "RA_OF_ASC_NODE": 92.4765,
          "ARG_OF_PERICENTER": 157.3184,
          "MEAN_ANOMALY": 42.6735,
          "EPHEMERIS_TYPE": 0,
          "CLASSIFICATION_TYPE": "U",
          "NORAD_CAT_ID": 38749,
          "ELEMENT_SET_NO": 999,
          "REV_AT_EPOCH": 4853,
          "BSTAR": 0,
          "MEAN_MOTION_DOT": -2.63e-06,
          "MEAN_MOTION_DDOT": 0
        }
      },
      "geometry": {
        "type": "Point",
        "coordinates": [
          NaN,
          NaN
        ]
      }
    },
    {
      "type": "Feature",
      "properties": {
        "norad_id": 38867,
        "name": "INTELSAT 23 (IS-23)",
        "group": "intelsat",
        "lat": NaN,
        "lon": NaN,
        "alt_km": NaN,
        "timestamp": "2025-12-01T03:08:33.647431+00:00",
        "meta": {
          "OBJECT_NAME": "INTELSAT 23 (IS-23)",
          "OBJECT_ID": "2012-057A",
          "EPOCH": "2025-11-30T18:43:42.436128",
          "MEAN_MOTION": 1.00271218,
          "ECCENTRICITY": 0.0001785,
          "INCLINATION": 0.0406,
          "RA_OF_ASC_NODE": 128.1305,
          "ARG_OF_PERICENTER": 80.0692,
          "MEAN_ANOMALY": 89.6427,
          "EPHEMERIS_TYPE": 0,
          "CLASSIFICATION_TYPE": "U",
          "NORAD_CAT_ID": 38867,
          "ELEMENT_SET_NO": 999,
          "REV_AT_EPOCH": 4796,
          "BSTAR": 0,
          "MEAN_MOTION_DOT": -2.63e-06,
          "MEAN_MOTION_DDOT": 0
        }
      },
      "geometry": {
        "type": "Point",
        "coordinates": [
          NaN,
          NaN
        ]
      }
    },
    {
      "type": "Feature",
      "properties": {
        "norad_id": 39360,
        "name": "FM-6",
        "group": "intelsat",
        "lat": NaN,
        "lon": NaN,
        "alt_km": NaN,
        "timestamp": "2025-12-01T03:08:33.647879+00:00",
        "meta": {
          "OBJECT_NAME": "FM-6",
          "OBJECT_ID": "2013-058A",
          "EPOCH": "2025-11-30T16:42:57.549024",
          "MEAN_MOTION": 1.00273051,
          "ECCENTRICITY": 0.00029,
          "INCLINATION": 0.0066,
          "RA_OF_ASC_NODE": 127.6111,
          "ARG_OF_PERICENTER": 47.4986,
          "MEAN_ANOMALY": 29.3056,
          "EPHEMERIS_TYPE": 0,
          "CLASSIFICATION_TYPE": "U",
          "NORAD_CAT_ID": 39360,
          "ELEMENT_SET_NO": 999,
          "REV_AT_EPOCH": 4408,
          "BSTAR": 0,
          "MEAN_MOTION_DOT": 4e-08,
          "MEAN_MOTION_DDOT": 0
        }
      },
      "geometry": {
        "type": "Point",
        "coordinates": [
          NaN,
          NaN
        ]
      }
    },
    {
      "type": "Feature",
      "properties": {
        "norad_id": 40271,
        "name": "INTELSAT 30 (IS-30)",
        "group": "intelsat",
        "lat": NaN,
        "lon": NaN,
        "alt_km": NaN,
        "timestamp": "2025-12-01T03:08:33.648325+00:00",
        "meta": {
          "OBJECT_NAME": "INTELSAT 30 (IS-30)",
          "OBJECT_ID": "2014-062A",
          "EPOCH": "2025-11-30T13:23:28.748832",
          "MEAN_MOTION": 1.00275608,
          "ECCENTRICITY": 0.0001094,
          "INCLINATION": 0.0121,
          "RA_OF_ASC_NODE": 357.5615,
          "ARG_OF_PERICENTER": 83.3303,
          "MEAN_ANOMALY": 94.6276,
          "EPHEMERIS_TYPE": 0,
          "CLASSIFICATION_TYPE": "U",
          "NORAD_CAT_ID": 40271,
          "ELEMENT_SET_NO": 999,
          "REV_AT_EPOCH": 479,
          "BSTAR": 0,
          "MEAN_MOTION_DOT": -1.3e-06,
          "MEAN_MOTION_DDOT": 0
        }
      },
      "geometry": {
        "type": "Point",
        "coordinates": [
          NaN,
          NaN
        ]
      }
    },
    {
      "type": "Feature",
      "properties": {
        "norad_id": 40333,
        "name": "DIRECTV 14",
        "group": "intelsat",
        "lat": NaN,
        "lon": NaN,
        "alt_km": NaN,
        "timestamp": "2025-12-01T03:08:33.648758+00:00",
        "meta": {
          "OBJECT_NAME": "DIRECTV 14",
          "OBJECT_ID": "2014-078B",
          "EPOCH": "2025-11-30T13:22:13.870272",
          "MEAN_MOTION": 1.00269368,
          "ECCENTRICITY": 2.58e-05,
          "INCLINATION": 0.015,
          "RA_OF_ASC_NODE": 322.9245,
          "ARG_OF_PERICENTER": 234.6147,
          "MEAN_ANOMALY": 333.4849,
          "EPHEMERIS_TYPE": 0,
          "CLASSIFICATION_TYPE": "U",
          "NORAD_CAT_ID": 40333,
          "ELEMENT_SET_NO": 999,
          "REV_AT_EPOCH": 4005,
          "BSTAR": 0,
          "MEAN_MOTION_DOT": -1.04e-06,
          "MEAN_MOTION_DDOT": 0
        }
      },
      "geometry": {
        "type": "Point",
        "coordinates": [
          NaN,
          NaN
        ]
      }
    },
    {
      "type": "Feature",
      "properties": {
        "norad_id": 40663,
        "name": "DIRECTV 15",
        "group": "intelsat",
        "lat": NaN,
        "lon": NaN,
        "alt_km": NaN,
        "timestamp": "2025-12-01T03:08:33.649205+00:00",
        "meta": {
          "OBJECT_NAME": "DIRECTV 15",
          "OBJECT_ID": "2015-026A",
          "EPOCH": "2025-11-30T15:03:37.536192",
          "MEAN_MOTION": 1.00270486,
          "ECCENTRICITY": 1.96e-05,
          "INCLINATION": 0.0395,
          "RA_OF_ASC_NODE": 107.4357,
          "ARG_OF_PERICENTER": 110.5985,
          "MEAN_ANOMALY": 334.7656,
          "EPHEMERIS_TYPE": 0,
          "CLASSIFICATION_TYPE": "U",
          "NORAD_CAT_ID": 40663,
          "ELEMENT_SET_NO": 999,
          "REV_AT_EPOCH": 3847,
          "BSTAR": 0,
          "MEAN_MOTION_DOT": -8.1e-07,
          "MEAN_MOTION_DDOT": 0
        }
      },
      "geometry": {
        "type": "Point",
        "coordinates": [
          NaN,
          NaN
        ]
      }
    }
  ]
}