INTELSAT 19 (IS-19)     
1 38356U 12030A   25334.75239977 -.00000034  00000+0  00000+0 0  9993
2 38356   0.0136 309.0537 0003327 306.3359 251.3747  1.00271665 48467
INTELSAT 20 (IS-20)     
1 38740U 12043A   25334.80444575 -.00000003  00000+0  00000+0 0  9998
2 38740   0.0014   0.1559 0002885 185.8784 242.0096  1.00270589 48752
INTELSAT 21 (IS-21)     
1 38749U 12045A   25334.77931227 -.00000263  00000+0  00000+0 0  9998
2 38749   0.0554  92.4765 0001936 157.3184  42.6735  1.00270121 48539
INTELSAT 23 (IS-23)     
1 38867U 12057A   25334.78035227 -.00000263  00000+0  00000+0 0  9998
2 38867   0.0406 128.1305 0001785  80.0692  89.6427  1.00271218 47964
FM-6                    
1 39360U 13058A   25334.69649941  .00000004  00000+0  00000+0 0  9995
2 39360   0.0066 127.6111 0002900  47.4986  29.3056  1.00273051 44083
INTELSAT 30 (IS-30)     
1 40271U 14062A   25334.55797163 -.00000130  00000+0  00000+0 0  9990
2 40271   0.0121 357.5615 0001094  83.3303  94.6276  1.00275608  4799
DIRECTV 14              
1 40333U 14078B   25334.55710498 -.00000104  00000+0  00000+0 0  9993
2 40333   0.0150 322.9245 0000258 234.6147 333.4849  1.00269368 40058
DIRECTV 15              
1 40663U 15026A   25334.62751778 -.00000081  00000+0  00000+0 0  9991
2 40663   0.0395 107.4357 0000196 110.5985 334.7656  1.00270486 38474
